[{"OBJECT_NAME":"BRO-12","OBJECT_ID":"2024-043L","EPOCH":"2026-03-09T22:37:32.158848","MEAN_MOTION":14.96535251,"ECCENTRICITY":0.00077366,"INCLINATION":97.831,"RA_OF_ASC_NODE":199.8995,"ARG_OF_PERICENTER":330.9773,"MEAN_ANOMALY":29.1017,"EPHEMERIS_TYPE":0,"CLASSIFICATION_TYPE":"U","NORAD_CAT_ID":59108,"ELEMENT_SET_NO":999,"REV_AT_EPOCH":10979,"BSTAR":0.00015413906,"MEAN_MOTION_DOT":1.694e-5,"MEAN_MOTION_DDOT":0},{"OBJECT_NAME":"STARLINK-36243","OBJECT_ID":"2025-298C","EPOCH":"2026-03-09T21:28:03.374400","MEAN_MOTION":14.98334013,"ECCENTRICITY":0.00013353,"INCLINATION":70.0023,"RA_OF_ASC_NODE":14.1188,"ARG_OF_PERICENTER":253.4431,"MEAN_ANOMALY":106.6581,"EPHEMERIS_TYPE":0,"CLASSIFICATION_TYPE":"U","NORAD_CAT_ID":67077,"ELEMENT_SET_NO":999,"REV_AT_EPOCH":1324,"BSTAR":0.00033175963,"MEAN_MOTION_DOT":3.868e-5,"MEAN_MOTION_DDOT":0}]
